
 PEER Ground Motion Database, Time Series Search Report -- NGA-West2 -- 2022-08-10


 -- Summary of PEER Ground Motion Database Search Criteria --
Magnitude Min:, -1.0e-06
Magnitude Max:, 99999
Rrup Min (km):, -1.0e-06
Rrup Max (km):, 99999
Rjb Min (km):, -1.0e-06
Rjb Max (km):, 99999
Vs30 Min (m/sec):, -1.0e-06
Vs30 Max (m/sec):, 99999
D9-95 Min (sec):, -1.0e-06
D9-95 Max (sec):, 99999
Scale Factor Min:, -1.0e-06
Scale Factor Max:, 99999
Period Array:, 0.01,0.05,0.1,0.2, 0.3, 0.4, 0.5,1,2,4
Weight Array:, 1.0,1.0,1.0,1.0,1.0,1.0,1.0,1.0,4.0,1.0
Record Sequence Number:, 
Earthquake Name:, 
Station Name:, 
User-Defined Maximum Number of Records:, 11
Pulse:, 1
Damping Ratio:, 0.05
Scaling Method:, Minimize MSE
Suite Average:, Arithmetic
Single-Period-Scaling Period (sec):, 
Component:, H1
Fault Type:, All Types


 -- Summary of Metadata of Selected Records --
Result ID, Spectral Ordinate, Record Sequence Number, Mean Squared Error, Scale Factor, Tp-Pulse Period (sec), 5-75% Duration (sec), 5-95% Duration (sec), Arias Intensity (m/sec), Earthquake Name, Year, Station Name, Magnitude, Mechanism, Rjb (km), Rrup (km), Vs30 (m/sec), Lowest Useable Frequency (Hz), Initial-search Scale Factor, Horizontal-1 Acc. Filename, Horizontal-2 Acc. Filename, Vertical Acc. Filename
1, H1, 6, 0.0517, 2.0225, -, 17.7, 24.2, 1.6, "Imperial Valley-02", 1940, "El Centro Array #9", 6.95, strike slip, 6.09, 6.09, 213.44, 0.25, 2.0805, RSN6_IMPVALL.I_I-ELC180.AT2, RSN6_IMPVALL.I_I-ELC270.AT2 , RSN6_IMPVALL.I_I-ELC-UP.AT2  
2, H1, 9, 0.0849, 9.831, -, 21.5, 37.2, 0.1, "Borrego", 1942, "El Centro Array #9", 6.5, strike slip, 56.88, 56.88, 213.44, 0.125, 10.113, RSN9_BORREGO_B-ELC000.AT2, RSN9_BORREGO_B-ELC090.AT2 , RSN9_BORREGO_B-ELC-UP.AT2  
3, H1, 15, 0.0674, 4.1626, -, 10.7, 30.3, 0.6, "Kern County", 1952, "Taft Lincoln School", 7.36, Reverse, 38.42, 38.89, 385.43, 0.125, 4.282, RSN15_KERN_TAF021.AT2, RSN15_KERN_TAF111.AT2 , RSN15_KERN_TAF-UP.AT2  
4, H1, 28, 0.0987, 9.3442, -, 14.7, 29.0, 0.1, "Parkfield", 1966, "Cholame - Shandon Array #12", 6.19, strike slip, 17.64, 17.64, 408.93, 0.125, 9.6123, RSN28_PARKF_C12050.AT2, RSN28_PARKF_C12320.AT2 , RSN28_PARKF_C12DWN.AT2  
5, H1, 40, 0.0435, 16.3957, -, 19.3, 28.0, 0.0, "Borrego Mtn", 1968, "San Onofre - So Cal Edison", 6.63, strike slip, 129.11, 129.11, 442.88, 0.1625, 16.8662, RSN40_BORREGO_A-SON033.AT2, RSN40_BORREGO_A-SON303.AT2 , RSN40_BORREGO_A-SON-UP.AT2  
6, H1, 54, 0.0635, 62.9572, -, 13.6, 22.0, 0.0, "San Fernando", 1971, "Borrego Springs Fire Sta", 6.61, Reverse, 214.32, 214.32, 338.54, 0.125, 64.7636, RSN54_SFERN_BSF135.AT2, RSN54_SFERN_BSF225.AT2 , RSN54_SFERN_BSFDWN.AT2  
7, H1, 55, 0.0699, 49.3358, -, 13.6, 21.6, 0.0, "San Fernando", 1971, "Buena Vista - Taft", 6.61, Reverse, 111.37, 112.52, 385.69, 0.125, 50.7514, RSN55_SFERN_BVP090.AT2, RSN55_SFERN_BVP180.AT2 , RSN55_SFERN_BVPDWN.AT2  
8, H1, 59, 0.0835, 35.3724, -, 5.8, 10.4, 0.0, "San Fernando", 1971, "Cedar Springs_ Allen Ranch", 6.61, Reverse, 89.37, 89.72, 813.48, 0.375, 36.3873, RSN59_SFERN_CSM095.AT2, RSN59_SFERN_CSM185.AT2 , RSN59_SFERN_CSMDWN.AT2  
9, H1, 67, 0.0545, 86.5871, -, 20.2, 26.5, 0.0, "San Fernando", 1971, "Isabella Dam (Aux Abut)", 6.61, Reverse, 130.0, 130.98, 591.0, 0.125, 89.0716, RSN67_SFERN_ISD014.AT2, RSN67_SFERN_ISD284.AT2 , RSN67_SFERN_ISDDWN.AT2  
10, H1, 86, 0.0953, 35.9024, -, 15.8, 35.5, 0.0, "San Fernando", 1971, "San Onofre - So Cal Edison", 6.61, Reverse, 124.79, 124.79, 442.88, 0.25, 36.9325, RSN86_SFERN_SON033.AT2, RSN86_SFERN_SON303.AT2 , RSN86_SFERN_SONDWN.AT2  
11, H1, 96, 0.0619, 2.7443, -, 2.8, 8.1, 0.4, "Managua_ Nicaragua-02", 1972, "Managua_ ESSO", 5.2, strike slip, 4.33, 4.98, 288.77, 0.125, 2.8231, RSN96_MANAGUA_B-ESO090.AT2, RSN96_MANAGUA_B-ESO180.AT2 , RSN96_MANAGUA_B-ESODWN.AT2  

 These records were obtained from the NGA-West2 On-Line Ground-Motion Database Tool
 These records are UNSCALED, AS RECORDED
 Filename Extension: 
   ,AT2 = Acceleration
   ,VT2 = Velocity
   ,DT2 = Displacement
 The users of the NGA-West2 databases, flatfiles, models and reports are requested to acknowledge the Pacific Earthquake Engineering Research Center (PEER) in their work and publications.

 -- Scaled Spectra used in Search & Scaling --
Period (sec),Target pSa (g),Arithmetic Mean pSa (g),Arithmetic Mean + Sigma pSa (g),Arithmetic Mean - Sigma pSa (g),RSN-6 H1 pSa (g),RSN-9 H1 pSa (g),RSN-15 H1 pSa (g),RSN-28 H1 pSa (g),RSN-40 H1 pSa (g),RSN-54 H1 pSa (g),RSN-55 H1 pSa (g),RSN-59 H1 pSa (g),RSN-67 H1 pSa (g),RSN-86 H1 pSa (g),RSN-96 H1 pSa (g)
0.01,0.55239573,0.61274731,0.69417336,0.54087248,0.56981293,0.65089489,0.66722975,0.57467646,0.67865092,0.56166586,0.60204091,0.71433968,0.52848261,0.47063055,0.72179588
0.02,0.61679146,0.61353806,0.69252505,0.54356006,0.56827161,0.6567507,0.66206354,0.57415533,0.68106962,0.56929577,0.6051091,0.69502459,0.53098195,0.47534453,0.73085196
0.022,0.62967061,0.61548323,0.69642213,0.54395114,0.56856184,0.66028189,0.66359663,0.57856176,0.68130195,0.56630115,0.60631734,0.69689402,0.53150701,0.47600621,0.74098574
0.025,0.64898933,0.61957159,0.70006394,0.54833413,0.56900698,0.66527159,0.66652585,0.58631256,0.68325664,0.57613752,0.60783984,0.71930384,0.53299856,0.47971062,0.7289235
0.029,0.67474762,0.62737813,0.71705191,0.54891886,0.56974154,0.66908964,0.67105393,0.58771998,0.69093558,0.58101646,0.60925134,0.7697484,0.53567523,0.48035399,0.73657338
0.03,0.68118719,0.63101466,0.72845783,0.54660611,0.5699721,0.67173112,0.67212705,0.58959984,0.69280256,0.57949711,0.60984189,0.8141082,0.53633424,0.47907227,0.72607487
0.032,0.69406634,0.64022721,0.75432662,0.54338647,0.57045648,0.67704141,0.67501964,0.5904197,0.69368678,0.57748563,0.61192583,0.87847781,0.53719596,0.48282407,0.74796599
0.035,0.71338506,0.63914436,0.73845279,0.55319109,0.57120561,0.6804328,0.67857659,0.60844806,0.6973027,0.58114376,0.61327862,0.82046179,0.53744576,0.49146936,0.75082286
0.036,0.71982463,0.63852842,0.72981722,0.55865844,0.57150614,0.68109491,0.67835097,0.62659939,0.70387148,0.58404621,0.61482332,0.78569958,0.53837233,0.49352082,0.74592749
0.04,0.74558292,0.65965519,0.78532616,0.55409458,0.5728345,0.68451383,0.68572044,0.65604979,0.73265598,0.58555171,0.61368909,0.93247482,0.54816404,0.49166431,0.75288853
0.042,0.75846207,0.65882316,0.78418235,0.55350386,0.57356441,0.69704879,0.69015736,0.65048169,0.74351782,0.58292677,0.61826351,0.93068922,0.54972278,0.48499042,0.72569203
0.044,0.77134122,0.66758966,0.78781354,0.56571248,0.57430584,0.69955874,0.68825422,0.72157195,0.74671302,0.61105562,0.62099622,0.90281826,0.55222697,0.48046708,0.74551831
0.045,0.77778079,0.67663753,0.79895186,0.57304872,0.5747251,0.69254189,0.68660666,0.78600019,0.74622525,0.63441936,0.6220081,0.89831323,0.55506278,0.48719124,0.759919
0.046,0.78422036,0.6820972,0.8063304,0.5770049,0.57515892,0.68738211,0.68683602,0.83950145,0.74630051,0.65524561,0.62124882,0.87274324,0.55764317,0.486778,0.77423133
0.048,0.79709951,0.69760888,0.84372048,0.57680021,0.57600593,0.68662453,0.69625932,0.92458208,0.74393444,0.65985786,0.62734228,0.91184246,0.56193564,0.48724581,0.79806737
0.05,0.80997866,0.71943878,0.89751873,0.57669231,0.57645937,0.71150247,0.70823138,1.03339139,0.73313425,0.64505535,0.64108083,0.9922446,0.56778165,0.5092317,0.79571355
0.055,0.84217652,0.70727687,0.8355161,0.59872044,0.5781819,0.80376023,0.73414941,0.93046797,0.70460011,0.66612903,0.65607151,0.8691777,0.57096572,0.54327182,0.72327014
0.06,0.87437439,0.7691849,0.93940578,0.62980813,0.63142092,0.94651029,0.78318694,1.0017866,0.73828152,0.67201742,0.65514844,0.9765283,0.57921566,0.57875736,0.8981804
0.065,0.90657225,0.82954187,1.08832881,0.63229027,0.67928908,1.0527985,0.78551675,1.24071609,0.72490244,0.66181709,0.6620076,1.17013481,0.60267817,0.58080416,0.96429588
0.067,0.9194514,0.85719136,1.17324832,0.62627579,0.67654864,1.13081209,0.75813932,1.4281209,0.76148738,0.66740706,0.66277921,1.2074548,0.61427687,0.57419561,0.94788303
0.07,0.93877012,0.89567354,1.30570026,0.61440678,0.68075274,1.21874806,0.81262944,1.73012634,0.80226715,0.65491949,0.65005649,1.18923979,0.62006184,0.56456121,0.92904637
0.075,0.97096798,0.88816629,1.25554035,0.62828674,0.76079289,1.141925,0.92614818,1.59943224,0.81944217,0.57031543,0.65320362,1.22898314,0.5786292,0.60732883,0.88362849
0.08,1.00316585,0.87877106,1.14871905,0.67226062,0.8790156,1.07495847,0.84732806,1.35472992,0.82233995,0.61050411,0.71644769,1.23135486,0.67001474,0.60777689,0.8520114
0.085,1.03536372,0.93212639,1.21557265,0.7147739,0.91048317,1.14391282,1.01553798,1.27948786,0.81096378,0.62364587,0.76189879,1.41025389,0.73129636,0.62720187,0.93870785
0.09,1.06756158,0.9384677,1.18035468,0.74614998,0.96865175,1.11291188,1.11379205,1.17242703,0.8214654,0.61229537,0.77568519,1.30349543,0.76591208,0.66080792,1.01570056
0.095,1.09975945,0.96077338,1.18940797,0.7760882,1.05798736,1.19735491,1.18007857,1.27816285,0.77974451,0.69620873,0.74843801,1.07428236,0.77450213,0.74379877,1.03794899
0.1,1.13195731,0.97543766,1.18756537,0.80120105,1.17115209,1.1400699,1.06222989,1.25945583,0.88339255,0.6753573,0.76228262,1.18576587,0.80578182,0.79017745,0.99414891
0.11,1.19635304,0.99073501,1.14997379,0.85354629,1.11206146,1.15644042,1.07096844,1.04592752,0.95471134,0.7655366,0.90104846,1.23944063,0.78478556,0.84047273,1.02669195
0.12,1.22,1.06391914,1.28791497,0.87888095,1.35116987,1.24944327,1.10840231,0.94782776,0.99548915,0.77568783,1.04511247,1.46268885,0.87849752,0.86671305,1.02207842
0.13,1.22,1.19082322,1.47522054,0.96125284,1.65710767,1.45336982,1.34031794,1.0282278,1.0035383,0.75246668,1.11691877,1.44117183,0.98471137,1.30314121,1.01808402
0.133,1.22,1.19389881,1.48702469,0.9585546,1.63377952,1.46270432,1.36916727,0.9503946,1.00651265,0.73852606,1.1670992,1.38488233,0.96764071,1.40925462,1.0429256
0.14,1.22,1.23458038,1.4912099,1.02211547,1.50095662,1.30896383,1.35494158,0.95450136,1.08367094,0.84365141,1.27359646,1.56596278,1.07138076,1.53854301,1.08421542
0.15,1.22,1.29516467,1.58965102,1.05523257,1.31263135,1.265336,1.26419311,1.13721166,1.20900184,0.87102207,1.32377986,1.94243887,1.42283363,1.49390164,1.00446135
0.16,1.22,1.35229327,1.68322773,1.08642286,1.11993007,1.37611224,1.49519339,1.3958181,1.35365789,0.85167657,1.31377012,2.07752141,1.50907182,1.31889948,1.0635749
0.17,1.22,1.49399565,1.8989821,1.17537865,1.55313627,1.42221059,1.79940468,1.85924128,1.36969406,0.84846575,1.31101767,2.10091812,1.82835237,1.27686318,1.06464822
0.18,1.22,1.48494222,1.89386254,1.16431544,1.4674138,1.72235276,1.77004543,1.90040235,1.49780731,0.85107974,1.17831471,1.92446085,1.83726998,1.13406186,1.05115562
0.19,1.22,1.44646499,1.72537882,1.21263861,1.30737435,1.77525315,1.64311354,1.48618931,1.4690679,1.0480685,1.22303614,1.87045146,1.63991191,1.33111598,1.11753264
0.2,1.22,1.45574606,1.75213914,1.20949103,1.26385713,1.67045118,1.50303906,1.30669995,1.59731166,1.05675911,1.39269705,1.9623376,1.82774799,1.20694475,1.22536113
0.22,1.22,1.41390334,1.76402712,1.13327206,1.39771311,2.01600747,1.54315364,1.09721113,1.34667938,0.94474309,1.38395129,1.77890136,1.70502804,1.0395424,1.30000578
0.24,1.22,1.40533579,1.75151542,1.12757711,1.60139476,1.82656093,1.49958785,1.13837033,1.44747915,1.04222858,1.52144624,1.57345323,1.83830123,0.84156308,1.12830833
0.25,1.22,1.39978577,1.6924273,1.15774556,1.64417925,1.87027528,1.38560331,1.28162207,1.47358082,1.11867377,1.58131771,1.41899582,1.59373153,0.8928349,1.13682898
0.26,1.22,1.42315514,1.6669266,1.21503283,1.61869131,1.80414536,1.53534626,1.3688882,1.48106629,1.21192539,1.60914754,1.30270521,1.54017479,0.9751515,1.20746468
0.28,1.22,1.46701746,1.70366061,1.2632447,1.45520012,1.69210682,1.48868766,1.34338049,1.65664714,1.33371929,1.62203603,1.71391769,1.65318919,1.04472635,1.13358132
0.29,1.22,1.46241186,1.72094554,1.2427171,1.37558529,1.78026301,1.38199808,1.28249294,1.70988079,1.34116147,1.68817611,1.64943878,1.66961563,1.0197006,1.18821774
0.3,1.22,1.45312398,1.71989847,1.22772905,1.31810455,1.81349165,1.54083174,1.20279932,1.72236613,1.29875411,1.67234277,1.34116313,1.76012863,1.07031792,1.24406387
0.32,1.22,1.51580016,1.89649529,1.2115243,1.34940162,1.81130525,1.71950436,1.08592151,1.95311958,1.48882513,1.79691519,0.97550108,1.9684417,1.13717208,1.38769431
0.34,1.22,1.55959072,1.98287989,1.22666189,1.19828247,1.69787563,2.19669217,1.02764192,2.05050364,1.63349328,1.9072113,1.14561538,1.57363985,1.15313571,1.57140652
0.35,1.22,1.60867658,2.06593315,1.2526254,1.19493812,1.6234356,2.45426276,1.02513114,2.12445164,1.57284533,1.91690875,1.35020678,1.49441348,1.27750691,1.66134185
0.36,1.22,1.61828268,2.07041378,1.26488669,1.3336373,1.54530011,2.46938882,0.95701588,2.15851541,1.45463117,1.84965467,1.4375925,1.48399359,1.36855246,1.74282761
0.38,1.22,1.41587452,1.8324005,1.09402974,1.36616626,1.46330794,1.63575114,0.77066575,2.17087778,1.05650477,1.52217296,1.24713837,1.23840129,1.24382905,1.85980439
0.4,1.22,1.36467968,1.8145331,1.02635253,1.23780998,1.38716519,1.54570115,0.85674219,2.12084131,0.90805099,1.5712014,1.16389088,1.07063611,1.17623889,1.97319841
0.42,1.22,1.35013574,1.77099994,1.02928661,1.15157076,1.28295209,1.45237395,0.80014277,1.97841327,0.91437253,1.44939031,1.30879067,1.3982273,1.0913664,2.02389313
0.44,1.22,1.28406372,1.66561072,0.98991897,1.48936646,1.20026389,1.25652185,0.79856043,1.69023543,0.98594104,1.15032355,1.36296136,1.33176994,0.872838,1.98591902
0.45,1.22,1.27055043,1.65834416,0.97343992,1.63605763,1.2255039,1.26931061,0.79462,1.62138813,1.12018285,1.00449282,1.32850795,1.24576813,0.79089478,1.93932793
0.46,1.22,1.2673167,1.62601313,0.98774825,1.69637569,1.25718416,1.35896224,0.77931322,1.43628464,1.22317584,0.92115379,1.28856403,1.20263647,0.89731767,1.87951595
0.48,1.22,1.24824127,1.61071881,0.96733599,1.5913067,1.27176938,1.56064531,0.69234778,1.15200226,1.33486323,0.85205998,1.28107994,1.40674487,0.85515034,1.73268422
0.5,1.22,1.19319541,1.54015219,0.9243991,1.49182295,1.32586227,1.59306116,0.67530036,0.99233609,1.21454818,0.78050777,1.32458303,1.29684674,0.86489173,1.56538926
0.55,1.22,1.05466153,1.34416303,0.82751192,1.4855887,1.07427129,0.98709492,0.48393307,0.8942316,1.03471905,0.9050866,1.28752161,1.33638763,0.9529247,1.15951761
0.6,1.15566667,0.93319801,1.21898759,0.71441132,1.09067245,0.75819324,1.4220677,0.45262281,0.80920615,1.11256944,0.71108982,1.06785945,1.11581728,0.86301008,0.86206971
0.65,1.06676923,0.8954835,1.22624534,0.65393986,0.99298547,0.68975884,1.52156847,0.44220631,0.88522297,1.11471817,0.5624805,0.98376301,1.02246942,0.93426803,0.70087735
0.667,1.03958021,0.85880632,1.19545557,0.61696002,1.0224156,0.68226244,1.53109375,0.39880824,0.87753092,0.98513016,0.53369355,0.89477599,0.89441657,0.94988126,0.67686101
0.7,0.99057143,0.83640336,1.21396042,0.57627132,1.12519799,0.62818193,1.59233853,0.39682662,0.82544169,1.06579977,0.56118741,0.67282099,0.76802541,0.8556404,0.7089762
0.75,0.92453333,0.81341175,1.03601133,0.63864039,0.88377872,0.70216925,1.17160934,0.42926285,0.86833668,1.02603473,0.62857716,0.64456199,0.92352457,0.90086411,0.76880987
0.8,0.86675,0.87072349,1.10085439,0.68870088,1.02251855,0.90220235,1.27836261,0.45540728,0.79174438,1.02496319,0.68538043,0.71480695,0.95003841,0.85457087,0.89796332
0.85,0.81576471,0.8769517,1.09275437,0.70376683,1.14002146,0.82002771,1.2333399,0.49125853,0.76406708,1.00753789,0.71272135,0.82138996,0.91300769,0.86791076,0.87518632
0.9,0.77044444,0.77765465,0.97503909,0.62022821,0.99806672,0.57328212,1.06346161,0.46473949,0.74768627,0.89171737,0.57143988,0.88369241,0.78279016,0.82372248,0.75360261
0.95,0.72989474,0.72925211,0.9259067,0.57436525,1.01023246,0.53315106,0.85907992,0.46350102,0.71972599,0.89916647,0.56639184,0.93097786,0.58201476,0.80198503,0.65554675
1.0,0.6934,0.68271108,0.86674938,0.53774993,0.95019714,0.52147011,0.73670524,0.50107794,0.67310146,0.77874377,0.52032404,0.93670536,0.48841649,0.80144793,0.60163237
1.1,0.63036364,0.6123163,0.75727007,0.49510904,0.75884263,0.43594183,0.69798888,0.56664196,0.52957278,0.67828733,0.44226527,0.83980695,0.52999719,0.73996009,0.51617444
1.2,0.57783333,0.59778983,0.72769379,0.49107563,0.66520685,0.54008365,0.60552333,0.51904342,0.54968951,0.76774074,0.36903968,0.72396062,0.56599458,0.76639106,0.50301474
1.3,0.53338462,0.58568629,0.66111666,0.51886217,0.54880375,0.72229499,0.59344887,0.57924174,0.60413415,0.65304274,0.50142596,0.67482802,0.52971197,0.55643004,0.47918693
1.4,0.49528571,0.54728347,0.67242063,0.44543428,0.39638071,0.83186498,0.51171701,0.6001197,0.39828843,0.50626174,0.51405296,0.52323046,0.60442403,0.6007131,0.53306508
1.5,0.46226667,0.4893938,0.61275374,0.39086876,0.322681,0.67092587,0.4698941,0.68542945,0.41995767,0.4311972,0.41176183,0.38527674,0.47866097,0.54685811,0.56068888
1.6,0.433375,0.44981542,0.5566114,0.36351018,0.33221187,0.50180357,0.43033148,0.63338606,0.33533392,0.52824653,0.40302771,0.32246217,0.44310198,0.45578671,0.56227758
1.7,0.40788235,0.41059288,0.51673449,0.32625365,0.36566793,0.3820901,0.38930246,0.57525944,0.29915544,0.39650935,0.3889789,0.27964935,0.35867138,0.56183119,0.51940618
1.8,0.38522222,0.40267013,0.50685763,0.31989896,0.39163742,0.39071765,0.34806922,0.47763959,0.30924275,0.40494058,0.49572076,0.24360121,0.32578471,0.58795124,0.45406625
1.9,0.36494737,0.41777314,0.5492653,0.31775974,0.4031307,0.44302239,0.30829564,0.4506397,0.32007573,0.48003061,0.54761217,0.24215713,0.32636009,0.66337279,0.41080763
2.0,0.3467,0.40528212,0.55729216,0.29473517,0.39951493,0.39284841,0.27174703,0.38656374,0.31973158,0.4564197,0.53992811,0.22500219,0.35384146,0.72377494,0.38873126
2.2,0.31518182,0.29220781,0.36302911,0.23520265,0.39031007,0.28082079,0.21173871,0.25875764,0.25057818,0.29099964,0.3277128,0.16861107,0.34426016,0.35707799,0.33341891
2.4,0.28891667,0.27132826,0.35585035,0.20688198,0.34485411,0.19256777,0.1676794,0.33820027,0.24394152,0.26842841,0.40880577,0.16073768,0.28275957,0.29643091,0.28020544
2.5,0.27736,0.25964105,0.33142688,0.20340376,0.3132741,0.16393205,0.17274928,0.32404647,0.2740926,0.2960728,0.36700942,0.17862054,0.23637103,0.27558431,0.25429892
2.6,0.26669231,0.25238163,0.31023146,0.20531924,0.28125359,0.14467742,0.20266357,0.27549874,0.29468416,0.30881144,0.29270569,0.19003415,0.24724594,0.31002545,0.22859779
2.8,0.24764286,0.2373431,0.29073575,0.19375583,0.25427853,0.15496631,0.19262462,0.27093019,0.24105718,0.26307553,0.23887885,0.2077699,0.2768835,0.33118294,0.17912654
3.0,0.23113333,0.2153313,0.26578075,0.17445796,0.21125863,0.12752427,0.18261286,0.24056136,0.20120147,0.25606915,0.24472603,0.22678397,0.25036836,0.28114199,0.14639617
3.2,0.2166875,0.19613288,0.24094422,0.15965566,0.16013355,0.13432572,0.17031532,0.20116475,0.19408867,0.23746919,0.22220453,0.21755864,0.24677741,0.24378752,0.12963643
3.4,0.20394118,0.18874606,0.2409551,0.14784943,0.13538076,0.14878775,0.14355654,0.20066521,0.2179579,0.2125623,0.20764627,0.20827601,0.28555053,0.19859365,0.11722972
3.5,0.19811429,0.18546952,0.24449477,0.14069397,0.12586663,0.14326609,0.13196098,0.19856838,0.21889344,0.25226552,0.20074508,0.20046907,0.28000168,0.17659669,0.11153111
3.6,0.19261111,0.17943953,0.25143368,0.12805979,0.1166322,0.12634524,0.1209832,0.19154829,0.206192,0.30089765,0.18881701,0.19422242,0.2694519,0.1527,0.10604494
3.8,0.18247368,0.17471432,0.269021,0.11346732,0.09946833,0.1215959,0.11700009,0.18973403,0.18664255,0.37090269,0.14517856,0.18229234,0.24319574,0.17016647,0.09568079
4.0,0.17335,0.17737064,0.2990435,0.10520323,0.08441155,0.1141169,0.12199093,0.19908969,0.1879265,0.42756533,0.13174037,0.16213092,0.24629357,0.18963985,0.08617143
4.2,0.16509524,0.17393506,0.30051367,0.10067231,0.07152653,0.12693814,0.123747,0.18450886,0.18002885,0.42044978,0.12892838,0.13767817,0.2769823,0.18495013,0.07754753
4.4,0.15759091,0.1742802,0.31371306,0.09681965,0.06065943,0.15752128,0.13865894,0.16528809,0.16642433,0.41823777,0.11159404,0.11172584,0.32320303,0.19397649,0.06979294
4.6,0.15073913,0.16894305,0.31491469,0.09063329,0.05158529,0.19029357,0.14653213,0.15862401,0.14124874,0.40106537,0.09448384,0.09115234,0.34008588,0.18043645,0.06286593
